{
  "type": "FeatureCollection",
  "features": [
    {
      "type": "Feature",
      "properties": {
        "norad_id": 35026,
        "name": "COSMOS 2251 DEB",
        "group": "cosmos-2251-debris",
        "lat": -8.786493810081415,
        "lon": -72.26502613371923,
        "alt_km": 678.392822858732,
        "timestamp": "2025-12-27T20:30:59.675781+00:00",
        "meta_object_name": "COSMOS 2251 DEB",
        "meta_object_id": "1993-036AGP",
        "meta_epoch": "2025-12-27T02:27:21.059712",
        "meta_mean_motion": 14.53633351,
        "meta_eccentricity": 0.00826984,
        "meta_inclination": 74.0476,
        "meta_ra_of_asc_node": 291.6889,
        "meta_arg_of_pericenter": 41.1171,
        "meta_mean_anomaly": 334.1243,
        "meta_ephemeris_type": 0,
        "meta_classification_type": "U",
        "meta_norad_cat_id": 35026,
        "meta_element_set_no": 999,
        "meta_rev_at_epoch": 88352,
        "meta_bstar": 0.00010031799,
        "meta_mean_motion_dot": 4.09e-06,
        "meta_mean_motion_ddot": 0,
        "tle_line1": "1 35026U 93036AGP 25361.10232708  .00000409  00000+0  10032-3 0  9998",
        "tle_line2": "2 35026  74.0476 291.6889 0082698  41.1171 334.1243 14.53633351883527"
      },
      "geometry": {
        "type": "Point",
        "coordinates": [
          -72.26502613371923,
          -8.786493810081415
        ]
      }
    },
    {
      "type": "Feature",
      "properties": {
        "norad_id": 35028,
        "name": "COSMOS 2251 DEB",
        "group": "cosmos-2251-debris",
        "lat": -72.86461290361277,
        "lon": 130.47604466557547,
        "alt_km": 729.2275195585153,
        "timestamp": "2025-12-27T20:30:59.675791+00:00",
        "meta_object_name": "COSMOS 2251 DEB",
        "meta_object_id": "1993-036AGR",
        "meta_epoch": "2025-12-26T09:14:11.078016",
        "meta_mean_motion": 14.56582839,
        "meta_eccentricity": 0.008309,
        "meta_inclination": 74.0377,
        "meta_ra_of_asc_node": 245.0874,
        "meta_arg_of_pericenter": 15.167,
        "meta_mean_anomaly": 104.3209,
        "meta_ephemeris_type": 0,
        "meta_classification_type": "U",
        "meta_norad_cat_id": 35028,
        "meta_element_set_no": 999,
        "meta_rev_at_epoch": 88484,
        "meta_bstar": 9.0149e-05,
        "meta_mean_motion_dot": 3.89e-06,
        "meta_mean_motion_ddot": 0,
        "tle_line1": "1 35028U 93036AGR 25360.38485044  .00000389  00000+0  90149-4 0  9997",
        "tle_line2": "2 35028  74.0377 245.0874 0083090  15.1670 104.3209 14.56582839884840"
      },
      "geometry": {
        "type": "Point",
        "coordinates": [
          130.47604466557547,
          -72.86461290361277
        ]
      }
    },
    {
      "type": "Feature",
      "properties": {
        "norad_id": 35031,
        "name": "COSMOS 2251 DEB",
        "group": "cosmos-2251-debris",
        "lat": -72.2818924002497,
        "lon": 115.03954791023466,
        "alt_km": 764.0733393779929,
        "timestamp": "2025-12-27T20:30:59.675801+00:00",
        "meta_object_name": "COSMOS 2251 DEB",
        "meta_object_id": "1993-036AGU",
        "meta_epoch": "2025-12-26T08:14:40.104672",
        "meta_mean_motion": 14.38307542,
        "meta_eccentricity": 0.0019397,
        "meta_inclination": 74.0373,
        "meta_ra_of_asc_node": 234.2004,
        "meta_arg_of_pericenter": 325.2705,
        "meta_mean_anomaly": 34.7182,
        "meta_ephemeris_type": 0,
        "meta_classification_type": "U",
        "meta_norad_cat_id": 35031,
        "meta_element_set_no": 999,
        "meta_rev_at_epoch": 65479,
        "meta_bstar": 0.0001513,
        "meta_mean_motion_dot": 4.35e-06,
        "meta_mean_motion_ddot": 0,
        "tle_line1": "1 35031U 93036AGU 25360.34351973  .00000435  00000+0  15130-3 0  9998",
        "tle_line2": "2 35031  74.0373 234.2004 0019397 325.2705  34.7182 14.38307542654799"
      },
      "geometry": {
        "type": "Point",
        "coordinates": [
          115.03954791023466,
          -72.2818924002497
        ]
      }
    },
    {
      "type": "Feature",
      "properties": {
        "norad_id": 35032,
        "name": "COSMOS 2251 DEB",
        "group": "cosmos-2251-debris",
        "lat": 17.846452021725124,
        "lon": 152.81015219880763,
        "alt_km": 653.871841141392,
        "timestamp": "2025-12-27T20:30:59.675811+00:00",
        "meta_object_name": "COSMOS 2251 DEB",
        "meta_object_id": "1993-036AGV",
        "meta_epoch": "2025-12-27T08:35:05.273088",
        "meta_mean_motion": 14.58834768,
        "meta_eccentricity": 0.0067324,
        "meta_inclination": 73.8521,
        "meta_ra_of_asc_node": 339.1198,
        "meta_arg_of_pericenter": 187.727,
        "meta_mean_anomaly": 243.9685,
        "meta_ephemeris_type": 0,
        "meta_classification_type": "U",
        "meta_norad_cat_id": 35032,
        "meta_element_set_no": 999,
        "meta_rev_at_epoch": 87887,
        "meta_bstar": 0.00086512,
        "meta_mean_motion_dot": 4.147e-05,
        "meta_mean_motion_ddot": 0,
        "tle_line1": "1 35032U 93036AGV 25361.35769992  .00004147  00000+0  86512-3 0  9991",
        "tle_line2": "2 35032  73.8521 339.1198 0067324 187.7270 243.9685 14.58834768878878"
      },
      "geometry": {
        "type": "Point",
        "coordinates": [
          152.81015219880763,
          17.846452021725124
        ]
      }
    },
    {
      "type": "Feature",
      "properties": {
        "norad_id": 35033,
        "name": "COSMOS 2251 DEB",
        "group": "cosmos-2251-debris",
        "lat": 56.6498322129698,
        "lon": -57.663777287481075,
        "alt_km": 723.6148309780147,
        "timestamp": "2025-12-27T20:30:59.675821+00:00",
        "meta_object_name": "COSMOS 2251 DEB",
        "meta_object_id": "1993-036AGW",
        "meta_epoch": "2025-12-19T05:07:27.625152",
        "meta_mean_motion": 14.50959586,
        "meta_eccentricity": 0.001448,
        "meta_inclination": 74.0251,
        "meta_ra_of_asc_node": 164.3945,
        "meta_arg_of_pericenter": 270.8601,
        "meta_mean_anomaly": 89.0901,
        "meta_ephemeris_type": 0,
        "meta_classification_type": "U",
        "meta_norad_cat_id": 35033,
        "meta_element_set_no": 999,
        "meta_rev_at_epoch": 66021,
        "meta_bstar": 0.00048139,
        "meta_mean_motion_dot": 1.877e-05,
        "meta_mean_motion_ddot": 0,
        "tle_line1": "1 35033U 93036AGW 25353.21351418  .00001877  00000+0  48139-3 0  9998",
        "tle_line2": "2 35033  74.0251 164.3945 0014480 270.8601  89.0901 14.50959586660212"
      },
      "geometry": {
        "type": "Point",
        "coordinates": [
          -57.663777287481075,
          56.6498322129698
        ]
      }
    },
    {
      "type": "Feature",
      "properties": {
        "norad_id": 35038,
        "name": "COSMOS 2251 DEB",
        "group": "cosmos-2251-debris",
        "lat": 51.78457899797048,
        "lon": 174.22872721901513,
        "alt_km": 854.5667897899057,
        "timestamp": "2025-12-27T20:30:59.675832+00:00",
        "meta_object_name": "COSMOS 2251 DEB",
        "meta_object_id": "1993-036AHB",
        "meta_epoch": "2025-12-16T02:43:57.942048",
        "meta_mean_motion": 14.25166694,
        "meta_eccentricity": 0.01140711,
        "meta_inclination": 74.1077,
        "meta_ra_of_asc_node": 36.5236,
        "meta_arg_of_pericenter": 19.3791,
        "meta_mean_anomaly": 9.3469,
        "meta_ephemeris_type": 0,
        "meta_classification_type": "U",
        "meta_norad_cat_id": 35038,
        "meta_element_set_no": 999,
        "meta_rev_at_epoch": 85617,
        "meta_bstar": 0.00096319549,
        "meta_mean_motion_dot": 2.397e-05,
        "meta_mean_motion_ddot": 0,
        "tle_line1": "1 35038U 93036AHB 25350.11386507  .00002397  00000+0  96320-3 0  9999",
        "tle_line2": "2 35038  74.1077  36.5236 0114071  19.3791   9.3469 14.25166694856178"
      },
      "geometry": {
        "type": "Point",
        "coordinates": [
          174.22872721901513,
          51.78457899797048
        ]
      }
    },
    {
      "type": "Feature",
      "properties": {
        "norad_id": 35043,
        "name": "COSMOS 2251 DEB",
        "group": "cosmos-2251-debris",
        "lat": -71.51136573483505,
        "lon": -43.643809210487305,
        "alt_km": 606.8087819761186,
        "timestamp": "2025-12-27T20:30:59.675842+00:00",
        "meta_object_name": "COSMOS 2251 DEB",
        "meta_object_id": "1993-036AHG",
        "meta_epoch": "2025-12-26T18:53:03.575616",
        "meta_mean_motion": 14.77645294,
        "meta_eccentricity": 0.00948894,
        "meta_inclination": 73.9519,
        "meta_ra_of_asc_node": 17.8748,
        "meta_arg_of_pericenter": 224.707,
        "meta_mean_anomaly": 134.6429,
        "meta_ephemeris_type": 0,
        "meta_classification_type": "U",
        "meta_norad_cat_id": 35043,
        "meta_element_set_no": 999,
        "meta_rev_at_epoch": 67626,
        "meta_bstar": 0.0032488799,
        "meta_mean_motion_dot": 0.00025114,
        "meta_mean_motion_ddot": 0,
        "tle_line1": "1 35043U 93036AHG 25360.78684694  .00025114  00000+0  32489-2 0  9994",
        "tle_line2": "2 35043  73.9519  17.8748 0094889 224.7070 134.6429 14.77645294676261"
      },
      "geometry": {
        "type": "Point",
        "coordinates": [
          -43.643809210487305,
          -71.51136573483505
        ]
      }
    }
  ]
}